spkid,full_name,pdes,name,prefix,neo,pha,sats,H,G,M1,M2,K1,K2,PC,diameter,extent,albedo,rot_per,GM,BV,UB,IR,spec_B,spec_T,H_sigma,diameter_sigma,orbit_id,epoch,epoch_mjd,epoch_cal,equinox,e,a,q,i,om,w,ma,ad,n,tp,tp_cal,per,per_y,moid,moid_ld,moid_jup,t_jup,sigma_e,sigma_a,sigma_q,sigma_i,sigma_om,sigma_w,sigma_ma,sigma_ad,sigma_n,sigma_tp,sigma_per,class,producer,data_arc,first_obs,last_obs,n_obs_used,n_del_obs_used,n_dop_obs_used,condition_code,rms,two_body,A1,A1_sigma,A2,A2_sigma,A3,A3_sigma,DT,DT_sigma
2584693,584693 (2017 QF17),584693,,,Y,N,0,19.8,,,,,,,,,,,,,,,,,,,JPL 43,2460000.5,60000,2023-02-25.0,J2000,0.3384,1.616,1.069,17.1,321.34,248.37,335.27,2.16,0.4797,2460052.05,2023-04-17.5,750,2.05,0.205,79.9,2.94,4.22,5.60E-08,1.10E-08,9.20E-08,1.30E-05,1.00E-05,1.90E-05,1.10E-05,1.50E-08,5.10E-09,2.20E-05,7.90E-06,AMO,Otto Matic,2804,23/07/15,27/03/23,182,,,0,0.55333,,,,,,,,,
2585185,585185 (2017 VT12),585185,,,Y,N,0,20.42,,,,,,,,,,,,,,,,,,,JPL 47,2460000.5,60000,2023-02-25.0,J2000,0.4726,1.321,0.697,6.57,18.68,143,126.49,1.95,0.649,2459805.59,2022-08-14.0,555,1.52,0.089,34.7,3.04,4.82,4.80E-08,6.00E-09,6.50E-08,3.70E-06,3.00E-05,3.10E-05,1.10E-05,8.80E-09,4.40E-09,1.60E-05,3.80E-06,APO,Otto Matic,2204,24/07/15,05/08/21,299,,,0,0.45894,,,,,,,,,
2585428,585428 (2018 NP1),585428,,,Y,N,0,20.97,,,,,,,,,,,,,,,,,,,JPL 20,2460000.5,60000,2023-02-25.0,J2000,0.2309,1.023,0.787,27.66,114.46,355.82,358.82,1.26,0.9529,2460001.74,2023-02-26.2,378,1.03,0.197,76.6,3.85,5.85,2.30E-07,2.80E-08,2.20E-07,1.90E-05,8.60E-06,5.90E-05,9.50E-05,3.50E-08,3.90E-08,1.00E-04,1.60E-05,APO,Otto Matic,1477,10/06/17,26/06/21,74,,,1,0.51387,,,,,,,,,
2585734,585734 (2019 BA1),585734,,,Y,N,0,22.2,,,,,,,,,,,,,,,,,0.46,,JPL 11,2460000.5,60000,2023-02-25.0,J2000,0.3862,1.586,0.974,26.83,116.56,74.6,349.82,2.2,0.4934,2460021.14,2023-03-17.6,730,2,0.189,73.5,3.07,4.19,5.70E-08,8.60E-09,9.20E-08,1.90E-05,6.10E-06,2.30E-05,1.40E-05,1.20E-08,4.00E-09,2.90E-05,5.90E-06,APO,Otto Matic,2913,18/07/13,09/07/21,65,,,0,0.70211,,,,,,,,,
2591179,591179 (2013 EU9),591179,,,Y,N,0,21.66,,,,,,,,,,,,,,,,,,,JPL 55,2460000.5,60000,2023-02-25.0,J2000,0.1932,1.36,1.098,3.87,233.29,340.61,71.08,1.62,0.6211,2459886.07,2022-11-02.5,580,1.59,0.0927,36.1,3.34,4.83,3.60E-08,4.50E-09,4.80E-08,3.40E-06,2.50E-05,2.80E-05,2.00E-05,5.40E-09,3.10E-09,3.20E-05,2.90E-06,AMO,Otto Matic,6078,20/12/04,11/08/21,235,,,0,0.43109,,,,,,,,,
2592968,592968 (2015 FV118),592968,,,Y,N,0,21.65,,,,,,,,,,,,,,,,,,,JPL 47,2460000.5,60000,2023-02-25.0,J2000,0.584,0.8581,0.357,6.24,98.54,267.53,196.08,1.36,1.24,2460132.71,2023-07-07.2,290,0.795,0.0744,29,4.11,6.72,4.00E-08,2.60E-09,3.40E-08,2.60E-06,6.80E-05,6.40E-05,1.70E-05,4.10E-09,5.60E-09,1.40E-05,1.30E-06,ATE,Otto Matic,7311,24/03/03,30/03/23,151,,,0,0.55403,,,,,,,,,
2594769,594769 (2017 XD62),594769,,,Y,N,0,19.61,,,,,,,,,,,,,,,,,,,JPL 39,2460000.5,60000,2023-02-25.0,J2000,0.312,1.643,1.13,26.59,259.79,77.39,231.1,2.16,0.468,2460275.92,2023-11-27.4,769,2.11,0.307,119,3.39,4.12,4.60E-08,4.10E-08,9.40E-08,1.20E-05,1.10E-05,3.00E-05,1.50E-05,5.40E-08,1.70E-08,4.10E-05,2.90E-05,AMO,Otto Matic,3510,26/01/12,05/09/21,188,,,0,0.43264,,,,,,,,,
2594936,594936 (2021 EX2),594936,,,Y,N,0,17.76,,,,,,,,,,,,,,,,,0.3,,JPL 12,2460000.5,60000,2023-02-25.0,J2000,0.7371,2.49,0.655,6.77,2.27,16.02,187.68,4.33,0.2508,2460687.52,2025-01-12.0,1.44E+03,3.93,0.108,41.8,1.17,3.02,1.10E-07,8.70E-08,2.80E-07,1.30E-05,8.00E-05,8.00E-05,1.20E-05,1.50E-07,1.30E-08,7.60E-05,7.50E-05,APO,Otto Matic,6992,12/03/02,03/05/21,93,,,0,0.61953,,,,,,,,,
2594938,594938 (2021 GE13),594938,,,Y,N,0,18.23,,,,,,,,,,,,,,,,,0.38,,JPL 12,2460000.5,60000,2023-02-25.0,J2000,0.4713,2.186,1.156,29.65,115.3,156.14,202.26,3.22,0.305,2460517.69,2024-07-26.1,1.18E+03,3.23,0.165,64.3,2.06,3.37,1.00E-07,3.00E-08,2.10E-07,1.00E-05,1.80E-05,2.10E-05,8.70E-06,4.40E-08,6.30E-09,3.40E-05,2.40E-05,AMO,Otto Matic,3827,09/03/11,30/08/21,92,,,0,0.7536,,,,,,,,,
2595116,595116 (2001 QE96),595116,,,Y,N,0,22.84,,,,,,,,,,,,,,,,,,,JPL 24,2460000.5,60000,2023-02-25.0,J2000,0.028,1.311,1.274,7.27,150.24,278.85,23.54,1.35,0.6568,2459964.66,2023-01-20.1,548,1.5,0.299,117,3.66,4.96,1.70E-06,4.50E-09,2.20E-06,2.60E-05,1.80E-05,1.20E-03,1.30E-03,4.60E-09,3.40E-09,1.90E-03,2.80E-06,AMO,Otto Matic,7682,21/08/01,02/09/22,69,,,0,0.60102,,,,-1.30E-13,1.90E-14,,,,
2597171,597171 (2006 UD63),597171,,,Y,N,0,18.91,,,,,,,,,,83.97,,,,,,,,,JPL 115,2460000.5,60000,2023-02-25.0,J2000,0.4677,2.324,1.237,7.43,148.85,135.31,269.25,3.41,0.2782,2460326.7,2024-01-17.1,1.29E+03,3.54,0.24,93.4,1.82,3.41,3.50E-08,9.60E-09,8.20E-08,4.20E-06,1.70E-05,2.50E-05,5.40E-06,1.40E-08,1.70E-09,1.90E-05,8.00E-06,AMO,Otto Matic,6824,12/03/02,16/11/20,603,,,0,0.37728,,,,,,,,,
2598001,598001 (2008 CZ21),598001,,,Y,N,0,20.5,,,,,,,,,,,,,,,,,,,JPL 35,2460000.5,60000,2023-02-25.0,J2000,0.1446,1.432,1.225,17.05,335.53,68.51,358.28,1.64,0.5752,2460003.5,2023-02-27.9,626,1.71,0.296,115,3.66,4.63,1.60E-07,5.50E-09,2.30E-07,2.50E-05,2.70E-05,1.50E-04,1.30E-04,6.30E-09,3.30E-09,2.20E-04,3.60E-06,AMO,Otto Matic,4399,08/02/08,24/02/20,104,,,0,0.54647,,,,,,,,,
2601696,601696 (2013 LV28),601696,,,Y,N,0,18.74,,,,,,,,,,,,,,,,,,,JPL 41,2460000.5,60000,2023-02-25.0,J2000,0.6888,1.485,0.462,24.04,139.08,24.37,184.51,2.51,0.5448,2460322.65,2024-01-13.1,661,1.81,0.294,115,2.53,4.21,1.00E-07,1.20E-08,1.50E-07,1.60E-05,1.30E-05,1.60E-05,1.50E-05,2.10E-08,6.80E-09,3.00E-05,8.20E-06,APO,Otto Matic,3369,10/06/13,31/08/22,151,,,0,0.49766,,,,,,,,,
2601798,601798 (2013 RX80),601798,,,Y,N,0,18.2,,,,,,,,,,,,,,,,,,,JPL 39,2460000.5,60000,2023-02-25.0,J2000,0.6902,1.889,0.585,9.28,313.89,163.66,200.04,3.19,0.3797,2460421.8,2024-04-21.2,948,2.6,0.154,60,1.94,3.62,1.00E-07,4.70E-08,1.80E-07,6.50E-06,6.70E-05,7.70E-05,4.90E-05,7.90E-08,1.40E-08,1.40E-04,3.50E-05,APO,Otto Matic,9570,18/04/93,01/07/19,218,,,0,0.40722,,,,,,,,,
2604197,604197 (2015 MO66),604197,,,Y,N,0,20.11,,,,,,,,,,,,,,,,,,,JPL 23,2460000.5,60000,2023-02-25.0,J2000,0.5538,1.231,0.549,25,72.1,323.18,152.44,1.91,0.7215,2459789.22,2022-07-28.7,499,1.37,0.235,91.4,3.58,4.96,1.70E-07,2.40E-08,2.00E-07,1.60E-05,1.80E-05,3.50E-05,8.30E-05,3.70E-08,2.10E-08,1.10E-04,1.40E-05,APO,Otto Matic,1747,21/06/15,02/04/20,78,,,1,0.39293,,,,,,,,,
2605489,605489 (2016 NW22),605489,,,Y,N,0,21.11,,,,,,,,,,,,,,,,,,,JPL 31,2460000.5,60000,2023-02-25.0,J2000,0.3991,2.107,1.266,5.28,202.2,111.57,51.53,2.95,0.3224,2459840.65,2022-09-18.1,1.12E+03,3.06,0.269,105,2.39,3.63,9.10E-08,2.70E-08,2.10E-07,4.00E-06,4.60E-05,5.00E-05,2.00E-05,3.80E-08,6.20E-09,5.90E-05,2.20E-05,AMO,Otto Matic,4230,01/11/10,01/06/22,173,,,0,0.44041,,,,,,,,,
2606367,606367 (2017 VB),606367,,,Y,N,0,16.86,,,,,,,,,,,,,,,,,,,JPL 18,2460000.5,60000,2023-02-25.0,J2000,0.5023,1.582,0.787,25.56,346.85,270.49,33.04,2.38,0.4953,2459933.79,2022-12-20.2,727,1.99,0.107,41.8,3.11,4.15,2.00E-06,4.50E-08,3.10E-06,2.60E-05,1.70E-04,3.20E-04,8.60E-04,6.80E-08,2.10E-08,1.70E-03,3.10E-05,APO,Otto Matic,3696,10/09/11,23/10/21,82,,,2,0.53314,,,,,,,,,
2606438,606438 (2017 XK61),606438,,,Y,N,0,18.16,,,,,,,,,,,,,,,,,,,JPL 20,2460000.5,60000,2023-02-25.0,J2000,0.3689,1.605,1.013,27.11,32.21,304.82,300.15,2.2,0.4848,2460123.95,2023-06-28.4,743,2.03,0.13,50.4,3.43,4.16,6.50E-07,3.00E-08,1.00E-06,9.80E-06,4.80E-05,6.70E-05,1.20E-04,4.10E-08,1.40E-08,2.50E-04,2.10E-05,APO,Otto Matic,16688,29/05/76,05/02/22,79,,,0,0.5977,,,,,,,,,
2606605,606605 (2018 KV),606605,,,Y,N,0,17.28,,,,,,,,,,,,,,,,,,,JPL 48,2460000.5,60000,2023-02-25.0,J2000,0.6823,2.609,0.829,29.05,192.34,167.58,11.83,4.39,0.2339,2459949.91,2023-01-05.4,1.54E+03,4.21,0.16,62.3,1.18,2.9,3.40E-08,5.80E-08,9.60E-08,6.80E-06,1.40E-05,1.50E-05,1.20E-05,9.70E-08,7.70E-09,5.10E-05,5.10E-05,APO,Otto Matic,4139,25/01/11,26/05/22,276,,,0,0.49726,,,,,,,,,
2606702,606702 (2018 TO2),606702,,,Y,N,0,20.13,,,,,,,,,,,,,,,,,0.45,,JPL 17,2460000.5,60000,2023-02-25.0,J2000,0.5953,1.101,0.445,43.27,202.67,353.82,139.34,1.76,0.8536,2459837.26,2022-09-14.7,422,1.15,0.54,210,3.2,5.27,2.20E-07,9.80E-09,2.40E-07,3.70E-05,7.90E-06,7.10E-05,2.10E-04,1.60E-08,1.10E-08,2.50E-04,5.60E-06,APO,Otto Matic,2963,23/09/11,03/11/19,79,,,1,0.4909,,,,,,,,,
2606900,606900 (2019 JC47),606900,,,Y,N,0,20.43,,,,,,,,,,,,,,,,,0.43,,JPL 16,2460000.5,60000,2023-02-25.0,J2000,0.4267,2.151,1.233,6.43,70.75,213.19,60.42,3.07,0.3125,2459807.13,2022-08-15.6,1.15E+03,3.15,0.225,87.7,2.12,3.58,3.70E-08,8.50E-09,8.10E-08,6.20E-06,5.00E-05,5.10E-05,7.80E-06,1.20E-08,1.90E-09,2.50E-05,6.90E-06,AMO,Otto Matic,8034,28/05/00,27/05/22,84,,,0,0.53793,,,,,,,,,
2606908,606908 (2019 KB2),606908,,,Y,N,0,18.29,,,,,,,,,,,,,,,,,0.28,,JPL 17,2460000.5,60000,2023-02-25.0,J2000,0.5579,2.634,1.164,24.98,348.01,272.06,315.8,4.1,0.2306,2460192.22,2023-09-04.7,1.56E+03,4.27,0.439,171,2.22,3.05,5.40E-08,2.40E-08,1.40E-07,3.00E-05,2.10E-05,2.80E-05,9.20E-06,3.70E-08,3.10E-09,4.00E-05,2.10E-05,AMO,Otto Matic,7490,15/09/02,19/03/23,145,,,0,0.44622,,,,,,,,,
2606939,606939 (2019 SD3),606939,,,Y,N,0,21.82,,,,,,,,,,,,,,,,,0.2,,JPL 15,2460000.5,60000,2023-02-25.0,J2000,0.1997,1.562,1.25,19,191.17,137.57,287.45,1.87,0.5047,2460144.24,2023-07-18.7,713,1.95,0.285,111,3.56,4.35,6.50E-08,1.10E-08,9.30E-08,5.80E-06,7.80E-06,2.30E-05,1.50E-05,1.40E-08,5.50E-09,3.10E-05,7.80E-06,AMO,Otto Matic,3847,21/04/11,01/11/21,121,,,0,0.70996,,,,,,,,,
2608017,608017 (2002 UZ30),608017,,,Y,N,0,19.92,,,,,,,,,,,,,,,,,,,JPL 40,2460000.5,60000,2023-02-25.0,J2000,0.4595,1.272,0.687,27.57,199.75,33.51,193.49,1.86,0.6872,2460242.79,2023-10-25.2,524,1.43,0.251,97.7,3.18,4.87,2.70E-07,5.50E-09,3.40E-07,1.70E-05,9.60E-06,1.50E-05,3.40E-05,8.00E-09,4.50E-09,5.00E-05,3.40E-06,APO,Otto Matic,7305,29/10/02,29/10/22,131,,,0,0.58702,,,,,,,,,
